{
    "links": {
        "self": "http://www.neowsapp.com/rest/v1/neo/3836121?api_key=iIulBulltgU6a56xZRHN4H3l9WmuAYTsLGpBGhQ2"
    },
    "id": "3836121",
    "neo_reference_id": "3836121",
    "name": "(2018 VQ5)",
    "designation": "2018 VQ5",
    "nasa_jpl_url": "http://ssd.jpl.nasa.gov/sbdb.cgi?sstr=3836121",
    "absolute_magnitude_h": 27.0,
    "estimated_diameter": {
        "kilometers": {
            "estimated_diameter_min": 0.0105816886,
            "estimated_diameter_max": 0.023661375
        },
        "meters": {
            "estimated_diameter_min": 10.5816885933,
            "estimated_diameter_max": 23.6613750114
        },
        "miles": {
            "estimated_diameter_min": 0.0065751544,
            "estimated_diameter_max": 0.0147024923
        },
        "feet": {
            "estimated_diameter_min": 34.7168272045,
            "estimated_diameter_max": 77.6291855923
        }
    },
    "is_potentially_hazardous_asteroid": false,
    "close_approach_data": [
        {
            "close_approach_date": "2018-10-31",
            "close_approach_date_full": "2018-Oct-31 15:53",
            "epoch_date_close_approach": 1541001180000,
            "relative_velocity": {
                "kilometers_per_second": "9.1759541124",
                "kilometers_per_hour": "33033.4348046823",
                "miles_per_hour": "20525.6917540539"
            },
            "miss_distance": {
                "astronomical": "0.0312638943",
                "lunar": "12.1616548827",
                "kilometers": "4677011.995185141",
                "miles": "2906160.4933553058"
            },
            "orbiting_body": "Earth"
        },
        {
            "close_approach_date": "2044-11-26",
            "close_approach_date_full": "2044-Nov-26 02:40",
            "epoch_date_close_approach": 2363740800000,
            "relative_velocity": {
                "kilometers_per_second": "17.0330254244",
                "kilometers_per_hour": "61318.8915276643",
                "miles_per_hour": "38101.1745717312"
            },
            "miss_distance": {
                "astronomical": "0.2822283924",
                "lunar": "109.7868446436",
                "kilometers": "42220766.356564188",
                "miles": "26234767.6916262744"
            },
            "orbiting_body": "Earth"
        }
    ],
    "orbital_data": {
        "orbit_id": "2",
        "orbit_determination_date": "2019-08-08 05:55:33",
        "first_observation_date": "2018-11-03",
        "last_observation_date": "2018-11-09",
        "data_arc_in_days": 6,
        "observations_used": 25,
        "orbit_uncertainty": "7",
        "minimum_orbit_intersection": ".0241565",
        "jupiter_tisserand_invariant": "3.452",
        "epoch_osculation": "2459000.5",
        "eccentricity": ".5484202903428023",
        "semi_major_axis": "2.194139853560155",
        "inclination": "5.843479956102603",
        "ascending_node_longitude": "44.10705321034838",
        "orbital_period": "1187.120721228531",
        "perihelion_distance": ".9908290380179811",
        "perihelion_argument": "331.2729940268704",
        "aphelion_distance": "3.397450669102329",
        "perihelion_time": "2459592.622395423797",
        "mean_anomaly": "180.436069777329",
        "mean_motion": ".3032547520756289",
        "equinox": "J2000",
        "orbit_class": {
            "orbit_class_type": "APO",
            "orbit_class_description": "Near-Earth asteroid orbits which cross the Earth’s orbit similar to that of 1862 Apollo",
            "orbit_class_range": "a (semi-major axis) > 1.0 AU; q (perihelion) < 1.017 AU"
        }
    },
    "is_sentry_object": false
}